IONOSFERA-M 4           
1 64877U 25155B   26189.18605792  .00000026  00000+0  31345-4 0  9991
2 64877  98.6034 150.4807 0001692 106.7034 253.4329 14.21492358 49389
MICROCARB               
1 64899U 25156A   26189.14553168  .00000386  00000+0  67968-4 0  9990
2 64899  98.0076 265.9466 0017064 193.2667 166.8094 14.72879782 51058
CO3D 3                  
1 64900U 25156B   26189.18510971  .00002841  00000+0  13430-3 0  9994
2 64900  97.4331 267.5763 0001830 100.6605 259.4836 15.20198623 52724
CO3D 4                  
1 64901U 25156C   26189.18525635  .00001253  00000+0  61028-4 0  9991
2 64901  97.4334 267.5766 0001057 166.8043 193.3220 15.20191839 52727
CO3D 2                  
1 64902U 25156D   26189.15190997  .00002927  00000+0  13824-3 0  9997
2 64902  97.4331 267.4423 0001360  89.7736 270.3655 15.20207924 52713
CO3D 1                  
1 64903U 25156E   26189.15205803  .00002961  00000+0  13982-3 0  9994
2 64903  97.4331 267.4425 0001316 101.6352 258.5031 15.20212660 52714
PRSC-S1                 
1 65055U 25164A   26189.14649523  .00001957  00000+0  14161-3 0  9996
2 65055  41.1289 169.7545 0005563 148.9046 211.2098 15.06598969 51597
SENTINEL-6B             
1 66514U 25264A   26188.93210624 -.00000059  00000+0  73270-5 0  9991
2 66514  66.0415  92.0925 0007881 268.8031  91.2082 12.80930115 29828
CAS500-3                
1 66655U 25274F   26189.12380095  .00000907  00000+0  10374-3 0  9995
2 66655  97.7440 116.6987 0006702  56.9045 303.2814 14.88372386 33268
CSG-3                   
1 67304U 26001A   26187.97961446  .00000256  00000+0  38760-4 0  9999
2 67304  97.8893  11.2950 0001483  94.2500 265.8883 14.82148038 27390
PRSC-E03                
1 68835U 26092A   26188.86542175  .00002042  00000+0  14179-3 0  9994
2 68835  38.0022 327.7367 0004182 204.8295 155.2266 15.06785756 11073
CAS500-2                
1 69013U 26100AK  26189.14259959  .00003906  00000+0  17991-3 0  9995
2 69013  97.3874  86.6033 0008304 321.3577  38.7063 15.20846916  9994
