OBJECT_NAME,OBJECT_ID,EPOCH,MEAN_MOTION,ECCENTRICITY,INCLINATION,RA_OF_ASC_NODE,ARG_OF_PERICENTER,MEAN_ANOMALY,EPHEMERIS_TYPE,CLASSIFICATION_TYPE,NORAD_CAT_ID,ELEMENT_SET_NO,REV_AT_EPOCH,BSTAR,MEAN_MOTION_DOT,MEAN_MOTION_DDOT
IONOSFERA-M 4,2025-155B,2026-07-08T04:27:55.404288,14.21492358,.0001692,98.6034,150.4807,106.7034,253.4329,0,U,64877,999,4938,.31345E-4,.26E-6,0
MICROCARB,2025-156A,2026-07-08T03:29:33.937152,14.72879782,.0017064,98.0076,265.9466,193.2667,166.8094,0,U,64899,999,5105,.67968E-4,.386E-5,0
CO3D 3,2025-156B,2026-07-08T04:26:33.478944,15.20198623,.000183,97.4331,267.5763,100.6605,259.4836,0,U,64900,999,5272,.1343E-3,.2841E-4,0
CO3D 4,2025-156C,2026-07-08T04:26:46.148640,15.20191839,.0001057,97.4334,267.5766,166.8043,193.3220,0,U,64901,999,5272,.61028E-4,.1253E-4,0
CO3D 2,2025-156D,2026-07-08T03:38:45.021408,15.20207924,.000136,97.4331,267.4423,89.7736,270.3655,0,U,64902,999,5271,.13824E-3,.2927E-4,0
CO3D 1,2025-156E,2026-07-08T03:38:57.813792,15.20212660,.0001316,97.4331,267.4425,101.6352,258.5031,0,U,64903,999,5271,.13982E-3,.2961E-4,0
PRSC-S1,2025-164A,2026-07-08T03:30:57.187872,15.06598969,.0005563,41.1289,169.7545,148.9046,211.2098,0,U,65055,999,5159,.14161E-3,.1957E-4,0
SENTINEL-6B,2025-264A,2026-07-07T22:22:13.979136,12.80930115,.0007881,66.0415,92.0925,268.8031,91.2082,0,U,66514,999,2982,.7327E-5,-.59E-6,0
CAS500-3,2025-274F,2026-07-08T02:58:16.402080,14.88372386,.0006702,97.7440,116.6987,56.9045,303.2814,0,U,66655,999,3326,.10374E-3,.907E-5,0
CSG-3,2026-001A,2026-07-06T23:30:38.689344,14.82148038,.00014837,97.8893,11.2950,94.2500,265.8883,0,U,67304,999,2739,.38759905E-4,.256E-5,0
PRSC-E03,2026-092A,2026-07-07T20:46:12.439200,15.06785756,.0004182,38.0022,327.7367,204.8295,155.2266,0,U,68835,999,1107,.14179E-3,.2042E-4,0
CAS500-2,2026-100AK,2026-07-08T03:25:20.604576,15.20846916,.0008304,97.3874,86.6033,321.3577,38.7063,0,U,69013,999,999,.17991E-3,.3906E-4,0
